QIANFAN-1               
1 60379U 24140A   25303.29082858  .00000064  00000+0  80301-4 0  9996
2 60379  88.9730 303.7869 0017033 347.3025  12.7695 13.50977562 61480
QIANFAN-2               
1 60380U 24140B   25303.24564682  .00000058  00000+0  70717-4 0  9996
2 60380  88.9716 303.6369 0011443 320.4925  39.5391 13.50969671 61538
QIANFAN-3               
1 60381U 24140C   25303.25393042  .00000058  00000+0  70710-4 0  9991
2 60381  88.9709 303.7720 0012949 333.3915  26.6570 13.50969502 61446
QIANFAN-4               
1 60382U 24140D   25303.30319979  .00000042  00000+0  47182-4 0  9995
2 60382  88.9734 303.6535 0011753 323.0599  36.9742 13.50976352 61574
QIANFAN-5               
1 60383U 24140E   25303.27857480  .00000057  00000+0  69826-4 0  9991
2 60383  88.9709 303.7949 0014592 344.3978  15.6721 13.50973090 61430
QIANFAN-6               
1 60384U 24140F   25303.29917508  .00000057  00000+0  69814-4 0  9999
2 60384  88.9735 303.5273 0012054 329.4845  30.5604 13.50974140 61631
QIANFAN-7               
1 60385U 24140G   25303.28771895  .00000314  00000+0  12164-3 0  9997
2 60385  88.9747 298.8342 0014933 174.9201 185.2148 14.27586368 64196
QIANFAN-8               
1 60386U 24140H   25303.23330456  .00000044  00000+0  49098-4 0  9994
2 60386  88.9737 303.7710 0015550 330.1966  29.8298 13.50972187 61471
